<?xml version="1.0" encoding="UTF-8"?>
<ndm xmlns:xsi="http://www.w3.org/2001/XMLSchema-instance" xsi:noNamespaceSchemaLocation="https://sanaregistry.org/r/ndmxml_unqualified/ndmxml-2.0.0-master-2.0.xsd">
<omm id="CCSDS_OMM_VERS" version="2.0">
<header><CREATION_DATE/><ORIGINATOR/></header><body><segment><metadata><OBJECT_NAME>EUTELSAT 7A</OBJECT_NAME><OBJECT_ID>2004-008A</OBJECT_ID><CENTER_NAME>EARTH</CENTER_NAME><REF_FRAME>TEME</REF_FRAME><TIME_SYSTEM>UTC</TIME_SYSTEM><MEAN_ELEMENT_THEORY>SGP4</MEAN_ELEMENT_THEORY></metadata><data><meanElements><EPOCH>2025-09-02T17:03:16.272864</EPOCH><MEAN_MOTION>1.00274742</MEAN_MOTION><ECCENTRICITY>.00013088</ECCENTRICITY><INCLINATION>5.0937</INCLINATION><RA_OF_ASC_NODE>75.4403</RA_OF_ASC_NODE><ARG_OF_PERICENTER>127.4285</ARG_OF_PERICENTER><MEAN_ANOMALY>255.8796</MEAN_ANOMALY></meanElements><tleParameters><EPHEMERIS_TYPE>0</EPHEMERIS_TYPE><CLASSIFICATION_TYPE>U</CLASSIFICATION_TYPE><NORAD_CAT_ID>28187</NORAD_CAT_ID><ELEMENT_SET_NO>999</ELEMENT_SET_NO><REV_AT_EPOCH>7847</REV_AT_EPOCH><BSTAR>0</BSTAR><MEAN_MOTION_DOT>.103E-5</MEAN_MOTION_DOT><MEAN_MOTION_DDOT>0</MEAN_MOTION_DDOT></tleParameters></data></segment></body></omm>
<omm id="CCSDS_OMM_VERS" version="2.0">
<header><CREATION_DATE/><ORIGINATOR/></header><body><segment><metadata><OBJECT_NAME>EUTELSAT 174A</OBJECT_NAME><OBJECT_ID>2005-052A</OBJECT_ID><CENTER_NAME>EARTH</CENTER_NAME><REF_FRAME>TEME</REF_FRAME><TIME_SYSTEM>UTC</TIME_SYSTEM><MEAN_ELEMENT_THEORY>SGP4</MEAN_ELEMENT_THEORY></metadata><data><meanElements><EPOCH>2025-09-02T20:15:21.160224</EPOCH><MEAN_MOTION>1.00270946</MEAN_MOTION><ECCENTRICITY>.00061673</ECCENTRICITY><INCLINATION>3.4844</INCLINATION><RA_OF_ASC_NODE>80.1065</RA_OF_ASC_NODE><ARG_OF_PERICENTER>80.1757</ARG_OF_PERICENTER><MEAN_ANOMALY>299.7924</MEAN_ANOMALY></meanElements><tleParameters><EPHEMERIS_TYPE>0</EPHEMERIS_TYPE><CLASSIFICATION_TYPE>U</CLASSIFICATION_TYPE><NORAD_CAT_ID>28924</NORAD_CAT_ID><ELEMENT_SET_NO>999</ELEMENT_SET_NO><REV_AT_EPOCH>4945</REV_AT_EPOCH><BSTAR>0</BSTAR><MEAN_MOTION_DOT>.1E-6</MEAN_MOTION_DOT><MEAN_MOTION_DDOT>0</MEAN_MOTION_DDOT></tleParameters></data></segment></body></omm>
<omm id="CCSDS_OMM_VERS" version="2.0">
<header><CREATION_DATE/><ORIGINATOR/></header><body><segment><metadata><OBJECT_NAME>EUTELSAT HOTBIRD 13B</OBJECT_NAME><OBJECT_ID>2006-032A</OBJECT_ID><CENTER_NAME>EARTH</CENTER_NAME><REF_FRAME>TEME</REF_FRAME><TIME_SYSTEM>UTC</TIME_SYSTEM><MEAN_ELEMENT_THEORY>SGP4</MEAN_ELEMENT_THEORY></metadata><data><meanElements><EPOCH>2025-09-02T12:44:07.843776</EPOCH><MEAN_MOTION>1.00275793</MEAN_MOTION><ECCENTRICITY>.00040787</ECCENTRICITY><INCLINATION>0.9118</INCLINATION><RA_OF_ASC_NODE>85.4717</RA_OF_ASC_NODE><ARG_OF_PERICENTER>72.0065</ARG_OF_PERICENTER><MEAN_ANOMALY>48.6022</MEAN_ANOMALY></meanElements><tleParameters><EPHEMERIS_TYPE>0</EPHEMERIS_TYPE><CLASSIFICATION_TYPE>U</CLASSIFICATION_TYPE><NORAD_CAT_ID>29270</NORAD_CAT_ID><ELEMENT_SET_NO>999</ELEMENT_SET_NO><REV_AT_EPOCH>4442</REV_AT_EPOCH><BSTAR>0</BSTAR><MEAN_MOTION_DOT>.157E-5</MEAN_MOTION_DOT><MEAN_MOTION_DDOT>0</MEAN_MOTION_DDOT></tleParameters></data></segment></body></omm>
<omm id="CCSDS_OMM_VERS" version="2.0">
<header><CREATION_DATE/><ORIGINATOR/></header><body><segment><metadata><OBJECT_NAME>EUTELSAT HOTBIRD 13C</OBJECT_NAME><OBJECT_ID>2008-065A</OBJECT_ID><CENTER_NAME>EARTH</CENTER_NAME><REF_FRAME>TEME</REF_FRAME><TIME_SYSTEM>UTC</TIME_SYSTEM><MEAN_ELEMENT_THEORY>SGP4</MEAN_ELEMENT_THEORY></metadata><data><meanElements><EPOCH>2025-09-02T21:04:59.295648</EPOCH><MEAN_MOTION>1.00272399</MEAN_MOTION><ECCENTRICITY>.00041241</ECCENTRICITY><INCLINATION>2.2051</INCLINATION><RA_OF_ASC_NODE>82.6258</RA_OF_ASC_NODE><ARG_OF_PERICENTER>98.0854</ARG_OF_PERICENTER><MEAN_ANOMALY>105.3136</MEAN_ANOMALY></meanElements><tleParameters><EPHEMERIS_TYPE>0</EPHEMERIS_TYPE><CLASSIFICATION_TYPE>U</CLASSIFICATION_TYPE><NORAD_CAT_ID>33459</NORAD_CAT_ID><ELEMENT_SET_NO>999</ELEMENT_SET_NO><REV_AT_EPOCH>4446</REV_AT_EPOCH><BSTAR>0</BSTAR><MEAN_MOTION_DOT>-.1E-5</MEAN_MOTION_DOT><MEAN_MOTION_DDOT>0</MEAN_MOTION_DDOT></tleParameters></data></segment></body></omm>
<omm id="CCSDS_OMM_VERS" version="2.0">
<header><CREATION_DATE/><ORIGINATOR/></header><body><segment><metadata><OBJECT_NAME>EUTELSAT 36B</OBJECT_NAME><OBJECT_ID>2009-065A</OBJECT_ID><CENTER_NAME>EARTH</CENTER_NAME><REF_FRAME>TEME</REF_FRAME><TIME_SYSTEM>UTC</TIME_SYSTEM><MEAN_ELEMENT_THEORY>SGP4</MEAN_ELEMENT_THEORY></metadata><data><meanElements><EPOCH>2025-09-02T21:22:57.571968</EPOCH><MEAN_MOTION>1.00271718</MEAN_MOTION><ECCENTRICITY>.00058845</ECCENTRICITY><INCLINATION>0.0548</INCLINATION><RA_OF_ASC_NODE>338.2494</RA_OF_ASC_NODE><ARG_OF_PERICENTER>184.6585</ARG_OF_PERICENTER><MEAN_ANOMALY>190.5909</MEAN_ANOMALY></meanElements><tleParameters><EPHEMERIS_TYPE>0</EPHEMERIS_TYPE><CLASSIFICATION_TYPE>U</CLASSIFICATION_TYPE><NORAD_CAT_ID>36101</NORAD_CAT_ID><ELEMENT_SET_NO>999</ELEMENT_SET_NO><REV_AT_EPOCH>5782</REV_AT_EPOCH><BSTAR>0</BSTAR><MEAN_MOTION_DOT>.113E-5</MEAN_MOTION_DOT><MEAN_MOTION_DDOT>0</MEAN_MOTION_DDOT></tleParameters></data></segment></body></omm>
<omm id="CCSDS_OMM_VERS" version="2.0">
<header><CREATION_DATE/><ORIGINATOR/></header><body><segment><metadata><OBJECT_NAME>EUTELSAT KA-SAT 9A</OBJECT_NAME><OBJECT_ID>2010-069A</OBJECT_ID><CENTER_NAME>EARTH</CENTER_NAME><REF_FRAME>TEME</REF_FRAME><TIME_SYSTEM>UTC</TIME_SYSTEM><MEAN_ELEMENT_THEORY>SGP4</MEAN_ELEMENT_THEORY></metadata><data><meanElements><EPOCH>2025-09-01T22:10:38.707968</EPOCH><MEAN_MOTION>1.00273500</MEAN_MOTION><ECCENTRICITY>.00037544</ECCENTRICITY><INCLINATION>0.0530</INCLINATION><RA_OF_ASC_NODE>320.4579</RA_OF_ASC_NODE><ARG_OF_PERICENTER>174.3412</ARG_OF_PERICENTER><MEAN_ANOMALY>188.1837</MEAN_ANOMALY></meanElements><tleParameters><EPHEMERIS_TYPE>0</EPHEMERIS_TYPE><CLASSIFICATION_TYPE>U</CLASSIFICATION_TYPE><NORAD_CAT_ID>37258</NORAD_CAT_ID><ELEMENT_SET_NO>999</ELEMENT_SET_NO><REV_AT_EPOCH>4111</REV_AT_EPOCH><BSTAR>0</BSTAR><MEAN_MOTION_DOT>.64E-6</MEAN_MOTION_DOT><MEAN_MOTION_DDOT>0</MEAN_MOTION_DDOT></tleParameters></data></segment></body></omm>
<omm id="CCSDS_OMM_VERS" version="2.0">
<header><CREATION_DATE/><ORIGINATOR/></header><body><segment><metadata><OBJECT_NAME>EUTELSAT 7 WEST A</OBJECT_NAME><OBJECT_ID>2011-051A</OBJECT_ID><CENTER_NAME>EARTH</CENTER_NAME><REF_FRAME>TEME</REF_FRAME><TIME_SYSTEM>UTC</TIME_SYSTEM><MEAN_ELEMENT_THEORY>SGP4</MEAN_ELEMENT_THEORY></metadata><data><meanElements><EPOCH>2025-09-02T21:06:29.151648</EPOCH><MEAN_MOTION>1.00272285</MEAN_MOTION><ECCENTRICITY>.00059126</ECCENTRICITY><INCLINATION>0.0642</INCLINATION><RA_OF_ASC_NODE>339.9576</RA_OF_ASC_NODE><ARG_OF_PERICENTER>190.5611</ARG_OF_PERICENTER><MEAN_ANOMALY>121.0717</MEAN_ANOMALY></meanElements><tleParameters><EPHEMERIS_TYPE>0</EPHEMERIS_TYPE><CLASSIFICATION_TYPE>U</CLASSIFICATION_TYPE><NORAD_CAT_ID>37816</NORAD_CAT_ID><ELEMENT_SET_NO>999</ELEMENT_SET_NO><REV_AT_EPOCH>5100</REV_AT_EPOCH><BSTAR>0</BSTAR><MEAN_MOTION_DOT>-.59E-6</MEAN_MOTION_DOT><MEAN_MOTION_DDOT>0</MEAN_MOTION_DDOT></tleParameters></data></segment></body></omm>
<omm id="CCSDS_OMM_VERS" version="2.0">
<header><CREATION_DATE/><ORIGINATOR/></header><body><segment><metadata><OBJECT_NAME>EUTELSAT 16A</OBJECT_NAME><OBJECT_ID>2011-057A</OBJECT_ID><CENTER_NAME>EARTH</CENTER_NAME><REF_FRAME>TEME</REF_FRAME><TIME_SYSTEM>UTC</TIME_SYSTEM><MEAN_ELEMENT_THEORY>SGP4</MEAN_ELEMENT_THEORY></metadata><data><meanElements><EPOCH>2025-09-02T17:47:34.525248</EPOCH><MEAN_MOTION>1.00273674</MEAN_MOTION><ECCENTRICITY>.00053447</ECCENTRICITY><INCLINATION>0.0658</INCLINATION><RA_OF_ASC_NODE>339.2474</RA_OF_ASC_NODE><ARG_OF_PERICENTER>183.4922</ARG_OF_PERICENTER><MEAN_ANOMALY>102.2821</MEAN_ANOMALY></meanElements><tleParameters><EPHEMERIS_TYPE>0</EPHEMERIS_TYPE><CLASSIFICATION_TYPE>U</CLASSIFICATION_TYPE><NORAD_CAT_ID>37836</NORAD_CAT_ID><ELEMENT_SET_NO>999</ELEMENT_SET_NO><REV_AT_EPOCH>444</REV_AT_EPOCH><BSTAR>0</BSTAR><MEAN_MOTION_DOT>.105E-5</MEAN_MOTION_DOT><MEAN_MOTION_DDOT>0</MEAN_MOTION_DDOT></tleParameters></data></segment></body></omm>

</ndm>
