EUTELSAT 7A             
1 28187U 04008A   25245.71060501  .00000103  00000+0  00000+0 0  9998
2 28187   5.0937  75.4403 0001308 127.4285 255.8796  1.00274742 78471
EUTELSAT 174A           
1 28924U 05052A   25245.84399491  .00000010  00000+0  00000+0 0  9991
2 28924   3.4844  80.1065 0006167  80.1757 299.7924  1.00270946 49451
EUTELSAT HOTBIRD 13B    
1 29270U 06032A   25245.53064634  .00000157  00000+0  00000+0 0  9991
2 29270   0.9118  85.4717 0004078  72.0065  48.6022  1.00275793 44422
EUTELSAT HOTBIRD 13C    
1 33459U 08065A   25245.87846407 -.00000100  00000+0  00000+0 0  9995
2 33459   2.2051  82.6258 0004124  98.0854 105.3136  1.00272399 44462
EUTELSAT 36B            
1 36101U 09065A   25245.89094412  .00000113  00000+0  00000+0 0  9999
2 36101   0.0548 338.2494 0005884 184.6585 190.5909  1.00271718 57827
EUTELSAT KA-SAT 9A      
1 37258U 10069A   25244.92405912  .00000064  00000+0  00000+0 0  9998
2 37258   0.0530 320.4579 0003754 174.3412 188.1837  1.00273500 41117
EUTELSAT 7 WEST A       
1 37816U 11051A   25245.87950407 -.00000059  00000+0  00000+0 0  9994
2 37816   0.0642 339.9576 0005912 190.5611 121.0717  1.00272285 51003
EUTELSAT 16A            
1 37836U 11057A   25245.74137182  .00000105  00000+0  00000+0 0  9996
2 37836   0.0658 339.2474 0005344 183.4922 102.2821  1.00273674  4443
